GSAT0101 (GALILEO-PFM)  
1 37846U 11060A   26138.51921061 -.00000076  00000+0  00000+0 0  9993
2 37846  57.0042 342.5656 0003697  40.2031 319.8521  1.70475570 90615
GSAT0102 (GALILEO-FM2)  
1 37847U 11060B   26139.60232310 -.00000080  00000+0  00000+0 0  9992
2 37847  57.0073 342.5367 0003976  10.3558 340.0246  1.70475812 90632
GSAT0103 (GALILEO-FM3)  
1 38857U 12055A   26140.31940054  .00000020  00000+0  00000+0 0  9993
2 38857  55.7890 102.3095 0005561 300.0394  59.8573  1.70473323 84530
GSAT0201 (GALILEO 5)    
1 40128U 14050A   26140.92866072 -.00000055  00000+0  00000+0 0  9997
2 40128  48.9054 274.5531 1670492 178.3306 182.3325  1.85519837 77815
GSAT0202 (GALILEO 6)    
1 40129U 14050B   26139.02835990 -.00000043  00000+0  00000+0 0  9999
2 40129  48.9252 273.7160 1671271 178.9822 181.4323  1.85520448 79944
GSAT0203 (GALILEO 7)    
1 40544U 15017A   26140.64344212 -.00000084  00000+0  00000+0 0  9991
2 40544  56.7956 342.3461 0002351 295.1173  64.8788  1.70475919 68737
GSAT0204 (GALILEO 8)    
1 40545U 15017B   26140.31258484 -.00000083  00000+0  00000+0 0  9990
2 40545  56.8021 342.3736 0001826 270.2790  89.7214  1.70475536 31771
GSAT0205 (GALILEO 9)    
1 40889U 15045A   26115.63255192 -.00000038  00000+0  00000+0 0  9992
2 40889  54.9613 223.1764 0005159 266.9978  92.9342  1.67410754 66085
GSAT0206 (GALILEO 10)   
1 40890U 15045B   26140.30127741  .00000005  00000+0  00000+0 0  9997
2 40890  54.9526 222.3746 0001802  28.0092 332.0669  1.70473969 66560
GSAT0209 (GALILEO 12)   
1 41174U 15079A   26141.05578829  .00000021  00000+0  00000+0 0  9998
2 41174  55.8120 102.0053 0005624 335.1171  24.8103  1.70473817 64319
GSAT0208 (GALILEO 11)   
1 41175U 15079B   26140.10289328  .00000020  00000+0  00000+0 0  9996
2 41175  55.8098 102.0284 0005014 334.5099  25.4163  1.70473731 64717
GSAT0211 (GALILEO 14)   
1 41549U 16030A   26140.81358893  .00000001  00000+0  00000+0 0  9990
2 41549  55.1026 222.4479 0002586 339.0988  20.9549  1.70474072 62206
GSAT0210 (GALILEO 13)   
1 41550U 16030B   26140.48428466  .00000004  00000+0  00000+0 0  9992
2 41550  55.1019 222.4550 0003239 230.5838 129.4530  1.70473990 62196
GSAT0207 (GALILEO 15)   
1 41859U 16069A   26140.76244334  .00000019  00000+0  00000+0 0  9993
2 41859  55.4828 101.8444 0005757 322.8186  37.0951  1.70473687 58930
GSAT0212 (GALILEO 16)   
1 41860U 16069B   26141.20249031  .00000020  00000+0  00000+0 0  9996
2 41860  55.4806 101.8273 0004743 348.3152  11.6290  1.70473876 59191
GSAT0213 (GALILEO 17)   
1 41861U 16069C   26140.39661052  .00000019  00000+0  00000+0 0  9995
2 41861  55.4820 101.8577 0005569 307.7620  52.1397  1.70474272 59044
GSAT0214 (GALILEO 18)   
1 41862U 16069D   26139.36959220  .00000019  00000+0  00000+0 0  9998
2 41862  55.4803 101.8786 0004716 312.9377  46.9715  1.70473992 59153
GSAT0215 (GALILEO 19)   
1 43055U 17079A   26139.27311130  .00000014  00000+0  00000+0 0  9993
2 43055  55.0813 222.3025 0002770 261.6672  98.3702  1.70474555 52490
GSAT0216 (GALILEO 20)   
1 43056U 17079B   26140.15085850  .00000007  00000+0  00000+0 0  9992
2 43056  55.0819 222.2785 0002734 276.8950  83.1409  1.70474685 52520
GSAT0217 (GALILEO 21)   
1 43057U 17079C   26141.54479398 -.00000005  00000+0  00000+0 0  9990
2 43057  55.0799 222.2379 0003106 290.5896  69.4385  1.70474620 52533
GSAT0218 (GALILEO 22)   
1 43058U 17079D   26141.17828233 -.00000002  00000+0  00000+0 0  9993
2 43058  55.0790 222.2455 0004325 273.7877  86.2259  1.70474825 52552
GSAT0221 (GALILEO 25)   
1 43564U 18060A   26141.08213774 -.00000084  00000+0  00000+0 0  9994
2 43564  57.1776 342.5120 0003144 316.0402  43.9551  1.70475772 48708
GSAT0222 (GALILEO 26)   
1 43565U 18060B   26140.71516649 -.00000083  00000+0  00000+0 0  9990
2 43565  57.1817 342.5256 0001872 272.6123  87.3871  1.70475503 48741
GSAT0219 (GALILEO 23)   
1 43566U 18060C   26139.17634885 -.00000078  00000+0  00000+0 0  9996
2 43566  57.1811 342.5687 0002775 333.5819  26.4292  1.70475680 48697
GSAT0220 (GALILEO 24)   
1 43567U 18060D   26140.57048762 -.00000083  00000+0  00000+0 0  9992
2 43567  57.1803 342.5305 0002847 324.4055  35.5967  1.70475424 48705
GSAT0223 (GALILEO 27)   
1 49809U 21116A   26141.01043775 -.00000084  00000+0  00000+0 0  9993
2 49809  57.1683 342.4081 0000728 196.0455 164.7881  1.70475639 27726
GSAT0224 (GALILEO 28)   
1 49810U 21116B   26139.94120200 -.00000081  00000+0  00000+0 0  9990
2 49810  57.1717 342.4359 0000500 130.1594  47.0805  1.70475611 27724
GSAT0225 (GALILEO 29)   
1 59598U 24079A   26140.54673934  .00000019  00000+0  00000+0 0  9990
2 59598  55.1036 101.8514 0002236 289.7807 252.3015  1.70473989 12843
GSAT0227 (GALILEO 30)   
1 59600U 24079C   26139.26021830  .00000018  00000+0  00000+0 0  9992
2 59600  55.0977 101.8862 0001623  28.2313 331.7261  1.70474106 12873
GSAT0232 (GALILEO 32)   
1 61182U 24167A   26141.22989536 -.00000002  00000+0  00000+0 0  9997
2 61182  55.1920 222.0532 0005579 220.6928 123.6401  1.70474362 10410
GSAT0226 (GALILEO 31)   
1 61183U 24167B   26141.20040735 -.00000002  00000+0  00000+0 0  9995
2 61183  55.1908 222.0613 0002380 214.5573 203.0175  1.70474341 10397
